#dP2018  6 26  0  0  0.00000000      96 __u+U IGS08 FIT  IAC
## 2007 172800.00000000   900.00000000 58295 0.0000000000000
+   84   C02C03C04C05C06C07C08C09C10C11C12C13C14E01E02E03E04
+        E05E07E08E09E11E12E14E18E19E24E26E30G01G02G03G05G06
+        G07G08G09G10G11G12G13G14G15G16G17G18G19G20G21G22G23
+        G24G25G26G27G28G29G30G31G32J01R01R02R03R04R05R07R08
+        R09R10R11R13R14R15R16R17R18R19R20R21R22R23R24R26  0
++        12 12 12 12  9  9  8  8  8  7  8  8  7  7  7  7  7
++         7  7  7  7  7  7  7  8  7  7  7  7  3  3  3  3  3
++         3  3  3  3  3  3  3  3  3  3  3  3  3  3  3  3  3
++         3  3  3  3  3  3  3  3  3  9  5  5  5  5  6  5  5
++         7  5  7  7  5  5  7  5  5  5  5  5  5  5  6  8  0
%c M  cc GPS ccc cccc cccc cccc cccc ccccc ccccc ccccc ccccc
%c cc cc ccc ccc cccc cccc cccc cccc ccccc ccccc ccccc ccccc
%f  1.2500000  1.025000000  0.00000000000  0.000000000000000
%f  0.0000000  0.000000000  0.00000000000  0.000000000000000
%i    0    0    0    0      0      0      0      0         0
%i    0    0    0    0      0      0      0      0         0
/* INFORMATION & ANALYSIS CENTER (IAC)            FINAL DATA
/* S/V CLOCKS ARE ALIGNED TO GPS & GLONASS TIME RESPECTIVELY
/* USING THE BROADCAST EPHEMERIS                            
/* PCV:IGS14_2000 OL/AL:FES2004  NONE     YN ORB:CoN CLK:CoN
*  2018 06 26 20 30  0.00000000
PC02   4442.972249  41921.151375   -995.085651    117.089248
PC03 -14751.509278  39470.064554   -726.719075    322.333652
PC04 -39598.012662  14487.095907   -341.800445   -284.475827
PC05  21960.545133  35990.342423   -671.442900    340.823364
PC06 -24006.386398  30048.623521  17188.694796     71.115844
PC07 -11563.675429  35814.268808  19585.788654     92.240178
PC08 -11658.515826  18850.854452 -35817.095318    410.004917
PC09 -10975.613820  29555.764246  28026.433818     -2.410375
PC10     47.051239  41997.422977   5709.822271   -340.140222
PC11  -5543.859479 -15090.193027  22869.023718   -566.296501
PC12  16160.356903 -12847.141383  18783.342718    492.523115
PC13   1757.622826  25748.585760 -33280.226472   -393.901953
PC14   2327.897140 -24321.671632 -13464.473123    141.285704
PE01 -16351.160875    118.530271  24670.391660   -377.504825
PE02  16350.720421   -141.676815 -24676.566193     17.463430
PE03  24832.018007  -8160.890552  13889.920856    -47.844620
PE04 -20319.971097  21133.644770   4085.500081    -63.102926
PE05  14800.406912   9627.705728  23767.493309    238.978232
PE07   3869.630266 -21730.938569 -19702.878004      8.373920
PE08  20151.272200 -21287.622111  -4063.719054   6556.157013
PE09  -3772.675758  21707.510362  19787.704403   6751.902703
PE11   7223.653936  18224.087796 -22192.077041   1677.898450
PE12 -14866.476717  11220.581730 -23000.312339   4470.381025
PE14 -14051.872770  19316.102243 -18971.563565   6560.678693
PE18  22830.523758 -11335.099656   7623.519837   6103.383573
PE19 -24391.284686   6717.561724 -15350.104229     23.630340
PE24   3904.687871  29250.900620   2241.618605   6632.207793
PE26 -24281.151137 -14589.686014   8586.611541   5777.170025
PE30   8863.049692 -20845.575453 -19064.957794   5726.271328
PG01  21859.578377  12470.171870   8805.654089    -60.014783
PG02 -11908.616675 -21024.250404  11857.407189     74.589947
PG03  14395.874131   5068.987354  21719.133384     95.931616
PG05  -4046.300269 -23185.707279 -12202.462305     -5.519801
PG06   2029.168657 -17052.781043  20284.885056    392.662620
PG07  18050.857892  -1402.270113 -19362.502188    168.765795
PG08  17542.872059   7718.724061 -18407.802017   -106.147674
PG09  25428.633077  -7674.910687    467.938673    514.439005
PG10 -11008.488196  22690.226201  -8022.112891    188.717999
PG11  24676.120181   9545.476810  -1295.742194   -732.460514
PG12 -11629.939201 -10351.992887  21355.144630    324.846162
PG13  -8820.729237 -13342.099819 -21311.437202    -93.098697
PG14  -6562.136920  16029.452514  20387.593620    -97.509920
PG15 -20054.117276  -5670.840112 -16895.123061   -351.910797
PG16    850.782577  23468.566613 -12146.005873     19.996880
PG17  16183.320608 -14619.275415  15457.610716    -84.265471
PG18  20068.511911  17545.331332   -250.736032     26.443193
PG19   8634.313827 -15203.735791  19748.669614   -425.262509
PG20 -14113.094277  15677.587799 -16205.317996    511.312032
PG21 -15360.568313   5959.029062 -20033.886870   -375.913769
PG22  12327.418717  13876.956484  19248.970308   -438.805795
PG23  24225.842743   1141.484202  11607.924242   -215.345985
PG24 -22025.810459 -14248.255096   4934.923696    -51.741776
PG25 -15645.438388   5797.640836  20423.308340   -607.015614
PG26  -4458.999451  26063.396380  -1559.294334   -102.847556
PG27   5239.303346  13961.565283 -22066.808210    364.148923
PG28  13405.266057 -20584.694037  -9540.903462    726.757316
PG29 -26058.431493   4443.537044   2499.477232    425.428207
PG30  10855.547854 -11164.261707 -21503.369968     57.796123
PG31  -1044.084273  18001.402941  19392.535353    111.851399
PG32 -15870.216764  15601.919018  14472.280407   -486.868814
PJ01 -22985.162482  33011.487364  -8072.963972   -203.520726
PR01 -15815.847795  20024.261811    115.623176     28.228613
PR02  -3468.774283  17727.305093  18031.450706    316.758398
PR03  10223.763504   4793.311133  22920.306400    136.089935
PR04  17955.846155 -11354.765276  14151.471986    266.294952
PR05  14851.401396 -20600.390781  -2341.758227    -30.635889
PR07 -10440.590002  -4437.040735 -22803.390445    -40.998184
PR08 -17855.402344  10856.275072 -14568.916250     22.540203
PR09  -7388.590604 -24200.321605  -2915.326746   -420.822900
PR10 -12944.352125 -17134.711568  13675.248950     26.779395
PR11 -11409.254982    582.261520  22815.362974    -32.713790
PR13   7843.038506  24095.267130   2968.770588    -11.832591
PR14  13165.389692  17215.174459 -13458.450251     28.531209
PR15  12217.022770   3874.929949 -22030.210323    -12.277871
PR16   3071.630570 -16901.676435 -18922.862811     95.727068
PR17  21657.567527   8535.070600 -10388.632858    143.262853
PR18  24650.430909   1117.388960   6599.095794    200.735272
PR19  13994.976601  -6659.735057  20255.569518    -55.442834
PR20  -6110.069192 -11287.271931  22034.925317   -343.024768
PR21 -21905.421722  -8362.534824  10066.067082     10.026860
PR22 -23932.522727   -148.193346  -8638.720823    -54.322031
PR23 -10032.367178   8373.152581 -21917.805790    162.141217
PR24   7422.092373  11256.584619 -21686.396363   -168.105958
PR26  -5424.857389 -11183.737740  22285.135261     29.482238
EOF
